[{"OBJECT_NAME":"RS-44 & BREEZE-KM R\/B","OBJECT_ID":"2019-096E","EPOCH":"2026-03-09T22:49:16.851072","MEAN_MOTION":12.79747411,"ECCENTRICITY":0.0217918,"INCLINATION":82.5202,"RA_OF_ASC_NODE":45.6405,"ARG_OF_PERICENTER":16.7093,"MEAN_ANOMALY":344.1042,"EPHEMERIS_TYPE":0,"CLASSIFICATION_TYPE":"U","NORAD_CAT_ID":44909,"ELEMENT_SET_NO":999,"REV_AT_EPOCH":28965,"BSTAR":3.908443e-5,"MEAN_MOTION_DOT":2.1e-7,"MEAN_MOTION_DDOT":0},{"OBJECT_NAME":"COSMOS 567","OBJECT_ID":"1973-037D","EPOCH":"2026-03-09T22:15:00.183744","MEAN_MOTION":12.54105866,"ECCENTRICITY":0.00449779,"INCLINATION":74.0151,"RA_OF_ASC_NODE":251.3258,"ARG_OF_PERICENTER":130.1663,"MEAN_ANOMALY":348.5485,"EPHEMERIS_TYPE":0,"CLASSIFICATION_TYPE":"U","NORAD_CAT_ID":6678,"ELEMENT_SET_NO":999,"REV_AT_EPOCH":41488,"BSTAR":6.342562e-5,"MEAN_MOTION_DOT":-6.0e-8,"MEAN_MOTION_DDOT":0}]
